SENTINEL-6              
1 46984U 20086A   24294.46545862 -.00000034  00000+0  11842-3 0  9994
2 46984  66.0413 311.0683 0007912 269.7378  90.2731 12.80929603182874
